[
  {
    "CCSDS_OMM_VERS": "2.0",
    "COMMENT": "GENERATED VIA SPACE-TRACK.ORG API",
    "CREATION_DATE": "2021-12-04T07:06:19",
    "ORIGINATOR": "18 SPCS",
    "OBJECT_NAME": "ELEKTRON 1",
    "OBJECT_ID": "1964-006A",
    "CENTER_NAME": "EARTH",
    "REF_FRAME": "TEME",
    "TIME_SYSTEM": "UTC",
    "MEAN_ELEMENT_THEORY": "SGP4",
    "EPOCH": "2021-12-04T02:18:18.229248",
    "MEAN_MOTION": "9.04080465",
    "ECCENTRICITY": "0.30281810",
    "INCLINATION": "60.8408",
    "RA_OF_ASC_NODE": "259.5130",
    "ARG_OF_PERICENTER": "163.7982",
    "MEAN_ANOMALY": "208.6570",
    "EPHEMERIS_TYPE": "0",
    "CLASSIFICATION_TYPE": "U",
    "NORAD_CAT_ID": "746",
    "ELEMENT_SET_NO": "999",
    "REV_AT_EPOCH": "91699",
    "BSTAR": "-0.00001395700000",
    "MEAN_MOTION_DOT": "-0.00000112",
    "MEAN_MOTION_DDOT": "0.0000000000000",
    "SEMIMAJOR_AXIS": "9733.382",
    "PERIOD": "159.278",
    "APOAPSIS": "6302.692",
    "PERIAPSIS": "407.803",
    "OBJECT_TYPE": "PAYLOAD",
    "RCS_SIZE": "LARGE",
    "COUNTRY_CODE": "CIS",
    "LAUNCH_DATE": "1964-01-30",
    "SITE": "TTMTR",
    "DECAY_DATE": null,
    "FILE": "3232092",
    "GP_ID": "191044860",
    "TLE_LINE0": "0 ELEKTRON 1",
    "TLE_LINE1": "1   746U 64006A   21338.09604432 -.00000112  00000-0 -13957-4 0  9993",
    "TLE_LINE2": "2   746  60.8408 259.5130 3028181 163.7982 208.6570  9.04080465916997"
  },
  {
    "CCSDS_OMM_VERS": "2.0",
    "COMMENT": "GENERATED VIA SPACE-TRACK.ORG API",
    "CREATION_DATE": "2021-12-04T06:36:11",
    "ORIGINATOR": "18 SPCS",
    "OBJECT_NAME": "ELEKTRON 1 DEB",
    "OBJECT_ID": "1964-006C",
    "CENTER_NAME": "EARTH",
    "REF_FRAME": "TEME",
    "TIME_SYSTEM": "UTC",
    "MEAN_ELEMENT_THEORY": "SGP4",
    "EPOCH": "2021-12-04T03:28:23.585088",
    "MEAN_MOTION": "11.82198101",
    "ECCENTRICITY": "0.16929190",
    "INCLINATION": "60.7636",
    "RA_OF_ASC_NODE": "209.5456",
    "ARG_OF_PERICENTER": "31.6956",
    "MEAN_ANOMALY": "337.5505",
    "EPHEMERIS_TYPE": "0",
    "CLASSIFICATION_TYPE": "U",
    "NORAD_CAT_ID": "750",
    "ELEMENT_SET_NO": "999",
    "REV_AT_EPOCH": "64576",
    "BSTAR": "0.00087117000000",
    "MEAN_MOTION_DOT": "0.00007115",
    "MEAN_MOTION_DDOT": "0.0000000000000",
    "SEMIMAJOR_AXIS": "8139.699",
    "PERIOD": "121.807",
    "APOAPSIS": "3139.549",
    "PERIAPSIS": "383.579",
    "OBJECT_TYPE": "DEBRIS",
    "RCS_SIZE": "MEDIUM",
    "COUNTRY_CODE": "CIS",
    "LAUNCH_DATE": "1964-01-30",
    "SITE": "TTMTR",
    "DECAY_DATE": null,
    "FILE": "3232005",
    "GP_ID": "191042796",
    "TLE_LINE0": "0 ELEKTRON 1 DEB",
    "TLE_LINE1": "1   750U 64006C   21338.14471742  .00007115  00000-0  87117-3 0  9996",
    "TLE_LINE2": "2   750  60.7636 209.5456 1692919  31.6956 337.5505 11.82198101645768"
  },
  {
    "CCSDS_OMM_VERS": "2.0",
    "COMMENT": "GENERATED VIA SPACE-TRACK.ORG API",
    "CREATION_DATE": "2021-12-03T17:32:05",
    "ORIGINATOR": "18 SPCS",
    "OBJECT_NAME": "THOR ABLESTAR DEB",
    "OBJECT_ID": "1963-049F",
    "CENTER_NAME": "EARTH",
    "REF_FRAME": "TEME",
    "TIME_SYSTEM": "UTC",
    "MEAN_ELEMENT_THEORY": "SGP4",
    "EPOCH": "2021-12-03T13:47:54.155040",
    "MEAN_MOTION": "13.53872572",
    "ECCENTRICITY": "0.00275340",
    "INCLINATION": "89.9101",
    "RA_OF_ASC_NODE": "87.9053",
    "ARG_OF_PERICENTER": "343.5489",
    "MEAN_ANOMALY": "75.0181",
    "EPHEMERIS_TYPE": "0",
    "CLASSIFICATION_TYPE": "U",
    "NORAD_CAT_ID": "753",
    "ELEMENT_SET_NO": "999",
    "REV_AT_EPOCH": "85631",
    "BSTAR": "0.00026247000000",
    "MEAN_MOTION_DOT": "0.00000187",
    "MEAN_MOTION_DDOT": "0.0000000000000",
    "SEMIMAJOR_AXIS": "7436.181",
    "PERIOD": "106.362",
    "APOAPSIS": "1078.521",
    "PERIAPSIS": "1037.572",
    "OBJECT_TYPE": "DEBRIS",
    "RCS_SIZE": "SMALL",
    "COUNTRY_CODE": "US",
    "LAUNCH_DATE": "1963-12-05",
    "SITE": "AFWTR",
    "DECAY_DATE": null,
    "FILE": "3231740",
    "GP_ID": "190990362",
    "TLE_LINE0": "0 THOR ABLESTAR DEB",
    "TLE_LINE1": "1 00753U 63049F   21337.57493235  .00000187  00000-0  26247-3 0  9991",
    "TLE_LINE2": "2 00753  89.9101  87.9053 0027534 343.5489  75.0181 13.53872572856312"
  },
  {
    "CCSDS_OMM_VERS": "2.0",
    "COMMENT": "GENERATED VIA SPACE-TRACK.ORG API",
    "CREATION_DATE": "2021-12-04T06:56:11",
    "ORIGINATOR": "18 SPCS",
    "OBJECT_NAME": "OPS 4412 (TRANSIT 9)",
    "OBJECT_ID": "1964-026A",
    "CENTER_NAME": "EARTH",
    "REF_FRAME": "TEME",
    "TIME_SYSTEM": "UTC",
    "MEAN_ELEMENT_THEORY": "SGP4",
    "EPOCH": "2021-12-04T05:28:24.586176",
    "MEAN_MOTION": "14.14776239",
    "ECCENTRICITY": "0.00473780",
    "INCLINATION": "90.5229",
    "RA_OF_ASC_NODE": "97.9913",
    "ARG_OF_PERICENTER": "330.2107",
    "MEAN_ANOMALY": "29.6384",
    "EPHEMERIS_TYPE": "0",
    "CLASSIFICATION_TYPE": "U",
    "NORAD_CAT_ID": "801",
    "ELEMENT_SET_NO": "999",
    "REV_AT_EPOCH": "95225",
    "BSTAR": "0.00008372900000",
    "MEAN_MOTION_DOT": "0.00000172",
    "MEAN_MOTION_DDOT": "0.0000000000000",
    "SEMIMAJOR_AXIS": "7221.210",
    "PERIOD": "101.783",
    "APOAPSIS": "877.288",
    "PERIAPSIS": "808.863",
    "OBJECT_TYPE": "PAYLOAD",
    "RCS_SIZE": "LARGE",
    "COUNTRY_CODE": "US",
    "LAUNCH_DATE": "1964-06-04",
    "SITE": "AFWTR",
    "DECAY_DATE": null,
    "FILE": "3232057",
    "GP_ID": "191043735",
    "TLE_LINE0": "0 OPS 4412 (TRANSIT 9)",
    "TLE_LINE1": "1   801U 64026A   21338.22806234  .00000172  00000-0  83729-4 0  9994",
    "TLE_LINE2": "2   801  90.5229  97.9913 0047378 330.2107  29.6384 14.14776239952250"
  },
  {
    "CCSDS_OMM_VERS": "2.0",
    "COMMENT": "GENERATED VIA SPACE-TRACK.ORG API",
    "CREATION_DATE": "2021-12-03T22:46:10",
    "ORIGINATOR": "18 SPCS",
    "OBJECT_NAME": "SCOUT X-4 DEB",
    "OBJECT_ID": "1964-026B",
    "CENTER_NAME": "EARTH",
    "REF_FRAME": "TEME",
    "TIME_SYSTEM": "UTC",
    "MEAN_ELEMENT_THEORY": "SGP4",
    "EPOCH": "2021-12-03T12:41:45.517056",
    "MEAN_MOTION": "14.27745292",
    "ECCENTRICITY": "0.00307700",
    "INCLINATION": "89.8999",
    "RA_OF_ASC_NODE": "351.8077",
    "ARG_OF_PERICENTER": "273.6850",
    "MEAN_ANOMALY": "86.0826",
    "EPHEMERIS_TYPE": "0",
    "CLASSIFICATION_TYPE": "U",
    "NORAD_CAT_ID": "805",
    "ELEMENT_SET_NO": "999",
    "REV_AT_EPOCH": "95315",
    "BSTAR": "0.00021457000000",
    "MEAN_MOTION_DOT": "0.00000543",
    "MEAN_MOTION_DDOT": "0.0000000000000",
    "SEMIMAJOR_AXIS": "7177.414",
    "PERIOD": "100.858",
    "APOAPSIS": "821.364",
    "PERIAPSIS": "777.194",
    "OBJECT_TYPE": "DEBRIS",
    "RCS_SIZE": "SMALL",
    "COUNTRY_CODE": "US",
    "LAUNCH_DATE": "1964-06-04",
    "SITE": "AFWTR",
    "DECAY_DATE": null,
    "FILE": "3231791",
    "GP_ID": "191014384",
    "TLE_LINE0": "0 SCOUT X-4 DEB",
    "TLE_LINE1": "1   805U 64026B   21337.52899904  .00000543  00000-0  21457-3 0  9997",
    "TLE_LINE2": "2   805  89.8999 351.8077 0030770 273.6850  86.0826 14.27745292953152"
  },
  {
    "CCSDS_OMM_VERS": "2.0",
    "COMMENT": "GENERATED VIA SPACE-TRACK.ORG API",
    "CREATION_DATE": "2021-12-04T02:39:20",
    "ORIGINATOR": "18 SPCS",
    "OBJECT_NAME": "SCOUT X-4 R\/B",
    "OBJECT_ID": "1964-026D",
    "CENTER_NAME": "EARTH",
    "REF_FRAME": "TEME",
    "TIME_SYSTEM": "UTC",
    "MEAN_ELEMENT_THEORY": "SGP4",
    "EPOCH": "2021-12-03T15:04:10.366464",
    "MEAN_MOTION": "14.09309655",
    "ECCENTRICITY": "0.00388840",
    "INCLINATION": "90.5198",
    "RA_OF_ASC_NODE": "88.8905",
    "ARG_OF_PERICENTER": "321.2939",
    "MEAN_ANOMALY": "38.5460",
    "EPHEMERIS_TYPE": "0",
    "CLASSIFICATION_TYPE": "U",
    "NORAD_CAT_ID": "809",
    "ELEMENT_SET_NO": "999",
    "REV_AT_EPOCH": "94472",
    "BSTAR": "0.00000818880000",
    "MEAN_MOTION_DOT": "0.00000023",
    "MEAN_MOTION_DDOT": "0.0000000000000",
    "SEMIMAJOR_AXIS": "7239.872",
    "PERIOD": "102.178",
    "APOAPSIS": "889.889",
    "PERIAPSIS": "833.586",
    "OBJECT_TYPE": "ROCKET BODY",
    "RCS_SIZE": "MEDIUM",
    "COUNTRY_CODE": "US",
    "LAUNCH_DATE": "1964-06-04",
    "SITE": "AFWTR",
    "DECAY_DATE": null,
    "FILE": "3231910",
    "GP_ID": "191017549",
    "TLE_LINE0": "0 SCOUT X-4 R\/B",
    "TLE_LINE1": "1 00809U 64026D   21337.62789776  .00000023  00000-0  81888-5 0  9996",
    "TLE_LINE2": "2 00809  90.5198  88.8905 0038884 321.2939  38.5460 14.09309655944723"
  },
  {
    "CCSDS_OMM_VERS": "2.0",
    "COMMENT": "GENERATED VIA SPACE-TRACK.ORG API",
    "CREATION_DATE": "2021-12-04T06:16:11",
    "ORIGINATOR": "18 SPCS",
    "OBJECT_NAME": "OPS 4467 A",
    "OBJECT_ID": "1964-031A",
    "CENTER_NAME": "EARTH",
    "REF_FRAME": "TEME",
    "TIME_SYSTEM": "UTC",
    "MEAN_ELEMENT_THEORY": "SGP4",
    "EPOCH": "2021-12-04T02:54:54.994176",
    "MEAN_MOTION": "14.23909044",
    "ECCENTRICITY": "0.00062700",
    "INCLINATION": "99.7855",
    "RA_OF_ASC_NODE": "277.4842",
    "ARG_OF_PERICENTER": "51.8483",
    "MEAN_ANOMALY": "308.3256",
    "EPHEMERIS_TYPE": "0",
    "CLASSIFICATION_TYPE": "U",
    "NORAD_CAT_ID": "812",
    "ELEMENT_SET_NO": "999",
    "REV_AT_EPOCH": "98102",
    "BSTAR": "0.00003548800000",
    "MEAN_MOTION_DOT": "0.00000028",
    "MEAN_MOTION_DDOT": "0.0000000000000",
    "SEMIMAJOR_AXIS": "7190.300",
    "PERIOD": "101.130",
    "APOAPSIS": "816.673",
    "PERIAPSIS": "807.657",
    "OBJECT_TYPE": "PAYLOAD",
    "RCS_SIZE": "MEDIUM",
    "COUNTRY_CODE": "US",
    "LAUNCH_DATE": "1964-06-18",
    "SITE": "AFWTR",
    "DECAY_DATE": null,
    "FILE": "3231938",
    "GP_ID": "191040904",
    "TLE_LINE0": "0 OPS 4467 A",
    "TLE_LINE1": "1   812U 64031A   21338.12146984  .00000028  00000-0  35488-4 0  9999",
    "TLE_LINE2": "2   812  99.7855 277.4842 0006270  51.8483 308.3256 14.23909044981027"
  }
]
